OBJECT_NAME,OBJECT_ID,EPOCH,MEAN_MOTION,ECCENTRICITY,INCLINATION,RA_OF_ASC_NODE,ARG_OF_PERICENTER,MEAN_ANOMALY,EPHEMERIS_TYPE,CLASSIFICATION_TYPE,NORAD_CAT_ID,ELEMENT_SET_NO,REV_AT_EPOCH,BSTAR,MEAN_MOTION_DOT,MEAN_MOTION_DDOT
FLOCK 4H-20,2025-276BK,2026-06-25T03:34:29.556480,15.21221651,.00010793,97.4219,249.9548,261.5724,98.5389,0,U,66723,999,3090,.30340323E-3,.6704E-4,0
FLOCK 4H-21,2025-276BL,2026-06-25T04:11:50.982432,15.20811998,.00008701,97.4183,249.8256,264.4873,95.6264,0,U,66724,999,3090,.26777314E-3,.5837E-4,0
FLOCK 4H-22,2025-276BM,2026-06-25T03:31:20.817408,15.20268574,.00027605,97.4174,249.5270,34.3967,325.7446,0,U,66725,999,3163,.35401432E-3,.7619E-4,0
FLOCK 4H-23,2025-276BN,2026-06-25T06:14:58.755264,15.19837920,.00035263,97.4243,249.7182,347.6601,12.4547,0,U,66726,999,3164,.3163176E-3,.6715E-4,0
FLOCK 4H-24,2025-276BP,2026-06-25T04:20:16.428480,15.19938918,.00035821,97.4237,249.6668,7.8296,352.2994,0,U,66727,999,3163,.31262989E-3,.6656E-4,0
FLOCK 4H-25,2025-276BQ,2026-06-25T04:36:51.210432,15.20729175,.00010401,97.4193,249.8336,120.9608,239.1729,0,U,66728,999,3093,.28156394E-3,.6127E-4,0
FLOCK 4H-26,2025-276BR,2026-06-24T11:40:15.550176,15.19660903,.00043416,97.4192,248.7864,3.7630,356.3637,0,U,66729,999,3152,.25639687E-3,.5402E-4,0
FLOCK 4H-27,2025-276BS,2026-06-25T03:42:42.591168,15.20532081,.00010026,97.4170,249.6618,96.8625,263.2725,0,U,66730,999,3164,.32175423E-3,.6971E-4,0
FLOCK 4H-28,2025-276BT,2026-06-25T03:23:10.182912,15.19727748,.0003949,97.4182,249.4054,5.7797,354.3483,0,U,66731,999,3162,.31729901E-3,.6715E-4,0
FLOCK 4H-29,2025-276BU,2026-06-24T11:13:28.447968,15.19798426,.0003336,97.4170,248.7519,26.1799,333.9604,0,U,66732,999,3152,.26352929E-3,.5576E-4,0
FLOCK 4H-30,2025-276BV,2026-06-25T04:27:03.320640,15.19929705,.00037741,97.4232,249.6448,5.2954,354.8321,0,U,66733,999,3163,.30779552E-3,.655E-4,0
FLOCK 4H-31,2025-276BW,2026-06-25T03:18:15.572736,15.19711935,.00035608,97.4171,249.3809,16.7649,343.3703,0,U,66734,999,3162,.31119392E-3,.6581E-4,0
FLOCK 4H-32,2025-276BX,2026-06-25T04:37:55.493760,15.19831717,.00040342,97.4226,249.6133,0.2884,359.8352,0,U,66735,999,3163,.30549916E-3,.6482E-4,0
FLOCK 4H-33,2025-276BY,2026-06-25T03:59:07.262592,15.20974978,.0000801,97.4224,249.9466,239.6190,120.4966,0,U,66736,999,3165,.27506155E-3,.6027E-4,0
FLOCK 4H-34,2025-276BZ,2026-06-25T03:33:28.743840,15.20602128,.0000812,97.4238,249.8587,270.3073,89.8069,0,U,66737,999,3089,.31832403E-3,.691E-4,0
FLOCK 4H-35,2025-276CA,2026-06-24T11:13:16.840992,15.20704388,.00006991,97.4194,249.1336,212.2404,147.8789,0,U,66738,999,3083,.2238756E-3,.4853E-4,0
FLOCK 4H-36,2025-276CB,2026-06-25T03:51:57.541824,15.20495512,.00010041,97.4248,249.8656,304.3073,55.8067,0,U,66739,999,3164,.30397422E-3,.6575E-4,0
NUSAT-51 (YVONNE BRILL),2025-276CC,2026-06-25T04:31:30.917856,15.20346366,.00024126,97.4210,249.7298,354.6340,5.4869,0,U,66740,999,3164,.30957961E-3,.6668E-4,0
BLACK KITE-1,2025-276CD,2026-06-25T04:56:52.744128,15.20687822,.00044755,97.4246,249.8114,335.2164,24.8856,0,U,66741,999,2894,.42373808E-3,.9249E-4,0
MERCURY ONE (M1),2025-276CE,2026-06-25T03:58:12.813312,15.19683329,.00011083,97.4194,249.5703,344.3946,15.7255,0,U,66742,999,3163,.22987463E-3,.4838E-4,0
NUSAT-47,2025-276CF,2026-06-25T04:39:29.892672,15.20374490,.00015599,97.4190,249.6777,30.7746,329.3581,0,U,66743,999,3164,.29569426E-3,.6371E-4,0
AC1-001,2025-276CG,2026-06-25T03:31:00.167808,15.18377623,.00025867,97.4206,249.3287,9.6529,350.4754,0,U,66744,999,3161,.10548379E-3,.2101E-4,0
AC1-002,2025-276CH,2026-06-25T04:49:18.159168,15.18466075,.00017074,97.4198,249.3842,11.0381,349.0891,0,U,66745,999,3162,.10523647E-3,.2101E-4,0
UMBRA-11,2025-276CL,2026-06-25T04:28:38.346816,15.27025597,.00007278,97.4199,250.7679,274.5008,85.6147,0,U,66748,999,3171,.99767853E-3,.26452E-3,0
PIAST-S1,2025-276CM,2026-06-25T04:13:11.646336,15.20343883,.00010097,97.4193,249.7026,334.7587,25.3598,0,U,66749,999,3164,.27717408E-3,.5962E-4,0
TRANSPORTER-15 OBJECT CN,2025-276CN,2026-06-25T04:37:03.105120,15.19908936,.00002731,97.4229,249.7881,244.6139,115.5068,0,U,66750,999,3164,.20606945E-3,.4359E-4,0
ICEYE-X58,2025-276CP,2026-06-25T03:58:58.512000,15.17416219,.00020876,97.4208,249.4529,335.4357,24.6776,0,U,66751,999,3162,.17374203E-3,.3407E-4,0
ICEYE-X59,2025-276CQ,2026-06-25T03:30:18.737280,15.01574636,.0001746,97.4339,247.1039,83.3036,276.8388,0,U,66752,999,3146,.38862037E-3,.498E-4,0
ICEYE-X60,2025-276CR,2026-06-25T04:52:57.700704,15.11323322,.00025748,97.4200,248.6357,37.5616,322.5794,0,U,66753,999,3157,.31740265E-3,.5287E-4,0
ICEYE-X61,2025-276CS,2026-06-25T04:47:58.226208,15.18491495,.00020828,97.4203,249.5407,338.4513,21.6633,0,U,66754,999,3163,.17465248E-3,.3534E-4,0
