[{"id":"66723","name":"FLOCK 4H-20","tle1":"1 66723U 25276BK  26176.14895320  .00006704  00000+0  30340-3 0  9999","tle2":"2 66723  97.4219 249.9548 0001079 261.5724  98.5389 15.21221651 30903"},{"id":"66724","name":"FLOCK 4H-21","tle1":"1 66724U 25276BL  26176.17489563  .00005837  00000+0  26777-3 0  9996","tle2":"2 66724  97.4183 249.8256 0000870 264.4873  95.6264 15.20811998 30902"},{"id":"66725","name":"FLOCK 4H-22","tle1":"1 66725U 25276BM  26176.14676872  .00007619  00000+0  35401-3 0  9999","tle2":"2 66725  97.4174 249.5270 0002760  34.3967 325.7446 15.20268574 31630"},{"id":"66726","name":"FLOCK 4H-23","tle1":"1 66726U 25276BN  26176.26040226  .00006715  00000+0  31632-3 0  9999","tle2":"2 66726  97.4243 249.7182 0003526 347.6601  12.4547 15.19837920 31646"},{"id":"66727","name":"FLOCK 4H-24","tle1":"1 66727U 25276BP  26176.18074570  .00006656  00000+0  31263-3 0  9994","tle2":"2 66727  97.4237 249.6668 0003582   7.8296 352.2994 15.19938918 31634"},{"id":"66728","name":"FLOCK 4H-25","tle1":"1 66728U 25276BQ  26176.19225938  .00006127  00000+0  28156-3 0  9992","tle2":"2 66728  97.4193 249.8336 0001040 120.9608 239.1729 15.20729175 30937"},{"id":"66729","name":"FLOCK 4H-26","tle1":"1 66729U 25276BR  26175.48629109  .00005402  00000+0  25640-3 0  9992","tle2":"2 66729  97.4192 248.7864 0004341   3.7630 356.3637 15.19660903 31528"},{"id":"66730","name":"FLOCK 4H-27","tle1":"1 66730U 25276BS  26176.15465962  .00006971  00000+0  32175-3 0  9997","tle2":"2 66730  97.4170 249.6618 0001002  96.8625 263.2725 15.20532081 31645"},{"id":"66731","name":"FLOCK 4H-28","tle1":"1 66731U 25276BT  26176.14109008  .00006715  00000+0  31730-3 0  9995","tle2":"2 66731  97.4182 249.4054 0003949   5.7797 354.3483 15.19727748 31627"},{"id":"66732","name":"FLOCK 4H-29","tle1":"1 66732U 25276BU  26175.46769037  .00005576  00000+0  26353-3 0  9993","tle2":"2 66732  97.4170 248.7519 0003336  26.1799 333.9604 15.19798426 31520"},{"id":"66733","name":"FLOCK 4H-30","tle1":"1 66733U 25276BV  26176.18545510  .00006550  00000+0  30780-3 0  9994","tle2":"2 66733  97.4232 249.6448 0003774   5.2954 354.8321 15.19929705 31634"},{"id":"66734","name":"FLOCK 4H-31","tle1":"1 66734U 25276BW  26176.13768024  .00006581  00000+0  31119-3 0  9998","tle2":"2 66734  97.4171 249.3809 0003560  16.7649 343.3703 15.19711935 31626"},{"id":"66735","name":"FLOCK 4H-32","tle1":"1 66735U 25276BX  26176.19300340  .00006482  00000+0  30550-3 0  9996","tle2":"2 66735  97.4226 249.6133 0004034   0.2884 359.8352 15.19831717 31631"},{"id":"66736","name":"FLOCK 4H-33","tle1":"1 66736U 25276BY  26176.16605628  .00006027  00000+0  27506-3 0  9993","tle2":"2 66736  97.4224 249.9466 0000801 239.6190 120.4966 15.20974978 31652"},{"id":"66737","name":"FLOCK 4H-34","tle1":"1 66737U 25276BZ  26176.14824935  .00006910  00000+0  31832-3 0  9994","tle2":"2 66737  97.4238 249.8587 0000812 270.3073  89.8069 15.20602128 30897"},{"id":"66738","name":"FLOCK 4H-35","tle1":"1 66738U 25276CA  26175.46755603  .00004853  00000+0  22388-3 0  9994","tle2":"2 66738  97.4194 249.1336 0000699 212.2404 147.8789 15.20704388 30839"},{"id":"66739","name":"FLOCK 4H-36","tle1":"1 66739U 25276CB  26176.16108266  .00006575  00000+0  30397-3 0  9992","tle2":"2 66739  97.4248 249.8656 0001004 304.3073  55.8067 15.20495512 31641"},{"id":"66740","name":"NUSAT-51 (YVONNE BRILL)","tle1":"1 66740U 25276CC  26176.18855229  .00006668  00000+0  30958-3 0  9990","tle2":"2 66740  97.4210 249.7298 0002412 354.6340   5.4869 15.20346366 31645"},{"id":"66741","name":"BLACK KITE-1","tle1":"1 66741U 25276CD  26176.20616602  .00009249  00000+0  42374-3 0  9997","tle2":"2 66741  97.4246 249.8114 0004475 335.2164  24.8856 15.20687822 28948"},{"id":"66742","name":"MERCURY ONE (M1)","tle1":"1 66742U 25276CE  26176.16542608  .00004838  00000+0  22987-3 0  9994","tle2":"2 66742  97.4194 249.5703 0001108 344.3946  15.7255 15.19683329 31639"},{"id":"66743","name":"NUSAT-47","tle1":"1 66743U 25276CF  26176.19409598  .00006371  00000+0  29569-3 0  9995","tle2":"2 66743  97.4190 249.6777 0001559  30.7746 329.3581 15.20374490 31647"},{"id":"66744","name":"AC1-001","tle1":"1 66744U 25276CG  26176.14652972  .00002101  00000+0  10548-3 0  9991","tle2":"2 66744  97.4206 249.3287 0002586   9.6529 350.4754 15.18377623 31616"},{"id":"66745","name":"AC1-002","tle1":"1 66745U 25276CH  26176.20090462  .00002101  00000+0  10524-3 0  9993","tle2":"2 66745  97.4198 249.3842 0001707  11.0381 349.0891 15.18466075 31628"},{"id":"66748","name":"UMBRA-11","tle1":"1 66748U 25276CL  26176.18655494  .00026452  00000+0  99768-3 0  9997","tle2":"2 66748  97.4199 250.7679 0000727 274.5008  85.6147 15.27025597 31716"},{"id":"66749","name":"PIAST-S1","tle1":"1 66749U 25276CM  26176.17582924  .00005962  00000+0  27717-3 0  9992","tle2":"2 66749  97.4193 249.7026 0001009 334.7587  25.3598 15.20343883 31647"},{"id":"66750","name":"TRANSPORTER-15 OBJECT CN","tle1":"1 66750U 25276CN  26176.19239705  .00004359  00000+0  20607-3 0  9992","tle2":"2 66750  97.4229 249.7881 0000273 244.6139 115.5068 15.19908936 31640"},{"id":"66751","name":"ICEYE-X58","tle1":"1 66751U 25276CP  26176.16595500  .00003407  00000+0  17374-3 0  9998","tle2":"2 66751  97.4208 249.4529 0002087 335.4357  24.6776 15.17416219 31620"},{"id":"66752","name":"ICEYE-X59","tle1":"1 66752U 25276CQ  26176.14605020  .00004980  00000+0  38862-3 0  9998","tle2":"2 66752  97.4339 247.1039 0001746  83.3036 276.8388 15.01574636 31464"},{"id":"66753","name":"ICEYE-X60","tle1":"1 66753U 25276CR  26176.20344561  .00005287  00000+0  31740-3 0  9995","tle2":"2 66753  97.4200 248.6357 0002574  37.5616 322.5794 15.11323322 31573"},{"id":"66754","name":"ICEYE-X61","tle1":"1 66754U 25276CS  26176.19997947  .00003534  00000+0  17465-3 0  9997","tle2":"2 66754  97.4203 249.5407 0002082 338.4513  21.6633 15.18491495 31636"}]